{
  "type": "FeatureCollection",
  "features": [
    {
      "type": "Feature",
      "properties": {
        "norad_id": 31631,
        "name": "FENGYUN 1C DEB",
        "group": "fengyun-1c-debris",
        "lat": -34.145453969794396,
        "lon": -106.12165314753607,
        "alt_km": 628.0710039707446,
        "timestamp": "2025-12-03T22:42:32.917670+00:00",
        "meta_object_name": "FENGYUN 1C DEB",
        "meta_object_id": "1999-025CAM",
        "meta_epoch": "2025-11-28T23:34:31.488960",
        "meta_mean_motion": 14.69293826,
        "meta_eccentricity": 0.00676029,
        "meta_inclination": 99.3421,
        "meta_ra_of_asc_node": 241.7954,
        "meta_arg_of_pericenter": 13.5824,
        "meta_mean_anomaly": 346.7177,
        "meta_ephemeris_type": 0,
        "meta_classification_type": "U",
        "meta_norad_cat_id": 31631,
        "meta_element_set_no": 999,
        "meta_rev_at_epoch": 63770,
        "meta_bstar": 0.0080354526,
        "meta_mean_motion_dot": 0.00049381,
        "meta_mean_motion_ddot": 0,
        "tle_line1": "1 31631U 99025CAM 25332.98230890  .00049381  00000+0  80355-2 0  9990",
        "tle_line2": "2 31631  99.3421 241.7954 0067602  13.5824 346.7177 14.69293826637708"
      },
      "geometry": {
        "type": "Point",
        "coordinates": [
          -106.12165314753607,
          -34.145453969794396
        ]
      }
    },
    {
      "type": "Feature",
      "properties": {
        "norad_id": 31633,
        "name": "FENGYUN 1C DEB",
        "group": "fengyun-1c-debris",
        "lat": 57.19005394568656,
        "lon": -21.2701866843765,
        "alt_km": 902.2770470032701,
        "timestamp": "2025-12-03T22:42:32.917678+00:00",
        "meta_object_name": "FENGYUN 1C DEB",
        "meta_object_id": "1999-025CAP",
        "meta_epoch": "2025-11-15T20:43:47.485920",
        "meta_mean_motion": 14.06334417,
        "meta_eccentricity": 0.00656916,
        "meta_inclination": 98.7152,
        "meta_ra_of_asc_node": 335.0833,
        "meta_arg_of_pericenter": 248.7649,
        "meta_mean_anomaly": 110.6494,
        "meta_ephemeris_type": 0,
        "meta_classification_type": "U",
        "meta_norad_cat_id": 31633,
        "meta_element_set_no": 999,
        "meta_rev_at_epoch": 56706,
        "meta_bstar": 0.0011592605,
        "meta_mean_motion_dot": 1.907e-05,
        "meta_mean_motion_ddot": 0,
        "tle_line1": "1 31633U 99025CAP 25319.86374405  .00001907  00000+0  11593-2 0  9995",
        "tle_line2": "2 31633  98.7152 335.0833 0065691 248.7649 110.6494 14.06334417567064"
      },
      "geometry": {
        "type": "Point",
        "coordinates": [
          -21.2701866843765,
          57.19005394568656
        ]
      }
    },
    {
      "type": "Feature",
      "properties": {
        "norad_id": 31634,
        "name": "FENGYUN 1C DEB",
        "group": "fengyun-1c-debris",
        "lat": -35.989991859174026,
        "lon": 31.19817355712467,
        "alt_km": 971.0898572392271,
        "timestamp": "2025-12-03T22:42:32.917687+00:00",
        "meta_object_name": "FENGYUN 1C DEB",
        "meta_object_id": "1999-025CAQ",
        "meta_epoch": "2025-12-02T09:00:27.072576",
        "meta_mean_motion": 13.94657889,
        "meta_eccentricity": 0.00916924,
        "meta_inclination": 99.3683,
        "meta_ra_of_asc_node": 22.7184,
        "meta_arg_of_pericenter": 185.6903,
        "meta_mean_anomaly": 174.3223,
        "meta_ephemeris_type": 0,
        "meta_classification_type": "U",
        "meta_norad_cat_id": 31634,
        "meta_element_set_no": 999,
        "meta_rev_at_epoch": 56379,
        "meta_bstar": 0.00031553586,
        "meta_mean_motion_dot": 3.91e-06,
        "meta_mean_motion_ddot": 0,
        "tle_line1": "1 31634U 99025CAQ 25336.37531334  .00000391  00000+0  31554-3 0  9993",
        "tle_line2": "2 31634  99.3683  22.7184 0091692 185.6903 174.3223 13.94657889563792"
      },
      "geometry": {
        "type": "Point",
        "coordinates": [
          31.19817355712467,
          -35.989991859174026
        ]
      }
    },
    {
      "type": "Feature",
      "properties": {
        "norad_id": 31639,
        "name": "FENGYUN 1C DEB",
        "group": "fengyun-1c-debris",
        "lat": 42.963187271169666,
        "lon": 112.71336838605544,
        "alt_km": 842.1916839944834,
        "timestamp": "2025-12-03T22:42:32.917696+00:00",
        "meta_object_name": "FENGYUN 1C DEB",
        "meta_object_id": "1999-025CAV",
        "meta_epoch": "2025-11-30T08:06:41.226624",
        "meta_mean_motion": 13.85157464,
        "meta_eccentricity": 0.01610819,
        "meta_inclination": 98.7412,
        "meta_ra_of_asc_node": 281.1108,
        "meta_arg_of_pericenter": 178.8374,
        "meta_mean_anomaly": 335.5568,
        "meta_ephemeris_type": 0,
        "meta_classification_type": "U",
        "meta_norad_cat_id": 31639,
        "meta_element_set_no": 999,
        "meta_rev_at_epoch": 93516,
        "meta_bstar": 0.00014166692,
        "meta_mean_motion_dot": 1.38e-06,
        "meta_mean_motion_ddot": 0,
        "tle_line1": "1 31639U 99025CAV 25334.33797716  .00000138  00000+0  14167-3 0  9990",
        "tle_line2": "2 31639  98.7412 281.1108 0161081 178.8374 335.5568 13.85157464935164"
      },
      "geometry": {
        "type": "Point",
        "coordinates": [
          112.71336838605544,
          42.963187271169666
        ]
      }
    },
    {
      "type": "Feature",
      "properties": {
        "norad_id": 31642,
        "name": "FENGYUN 1C DEB",
        "group": "fengyun-1c-debris",
        "lat": -52.64509662643741,
        "lon": -131.00936325615655,
        "alt_km": 731.3197567502984,
        "timestamp": "2025-12-03T22:42:32.917705+00:00",
        "meta_object_name": "FENGYUN 1C DEB",
        "meta_object_id": "1999-025CAY",
        "meta_epoch": "2025-12-03T11:33:37.797408",
        "meta_mean_motion": 14.33368249,
        "meta_eccentricity": 0.0118991,
        "meta_inclination": 98.5051,
        "meta_ra_of_asc_node": 59.8396,
        "meta_arg_of_pericenter": 284.1031,
        "meta_mean_anomaly": 74.6953,
        "meta_ephemeris_type": 0,
        "meta_classification_type": "U",
        "meta_norad_cat_id": 31642,
        "meta_element_set_no": 999,
        "meta_rev_at_epoch": 96886,
        "meta_bstar": 0.00051625,
        "meta_mean_motion_dot": 1.494e-05,
        "meta_mean_motion_ddot": 0,
        "tle_line1": "1 31642U 99025CAY 25337.48168747  .00001494  00000+0  51625-3 0  9995",
        "tle_line2": "2 31642  98.5051  59.8396 0118991 284.1031  74.6953 14.33368249968868"
      },
      "geometry": {
        "type": "Point",
        "coordinates": [
          -131.00936325615655,
          -52.64509662643741
        ]
      }
    },
    {
      "type": "Feature",
      "properties": {
        "norad_id": 31644,
        "name": "FENGYUN 1C DEB",
        "group": "fengyun-1c-debris",
        "lat": 14.61899199120057,
        "lon": 49.55214084012187,
        "alt_km": 592.4766950662688,
        "timestamp": "2025-12-03T22:42:32.917714+00:00",
        "meta_object_name": "FENGYUN 1C DEB",
        "meta_object_id": "1999-025CBA",
        "meta_epoch": "2025-12-03T11:17:30.550272",
        "meta_mean_motion": 14.67716753,
        "meta_eccentricity": 0.0154076,
        "meta_inclination": 98.6712,
        "meta_ra_of_asc_node": 226.7672,
        "meta_arg_of_pericenter": 212.2197,
        "meta_mean_anomaly": 321.9918,
        "meta_ephemeris_type": 0,
        "meta_classification_type": "U",
        "meta_norad_cat_id": 31644,
        "meta_element_set_no": 999,
        "meta_rev_at_epoch": 70908,
        "meta_bstar": 0.0013246,
        "meta_mean_motion_dot": 8.972e-05,
        "meta_mean_motion_ddot": 0,
        "tle_line1": "1 31644U 99025CBA 25337.47049248  .00008972  00000+0  13246-2 0  9994",
        "tle_line2": "2 31644  98.6712 226.7672 0154076 212.2197 321.9918 14.67716753709086"
      },
      "geometry": {
        "type": "Point",
        "coordinates": [
          49.55214084012187,
          14.61899199120057
        ]
      }
    },
    {
      "type": "Feature",
      "properties": {
        "norad_id": 31646,
        "name": "FENGYUN 1C DEB",
        "group": "fengyun-1c-debris",
        "lat": -57.318871081023914,
        "lon": 167.4023082085012,
        "alt_km": 828.9864369094894,
        "timestamp": "2025-12-03T22:42:32.917723+00:00",
        "meta_object_name": "FENGYUN 1C DEB",
        "meta_object_id": "1999-025CBC",
        "meta_epoch": "2025-11-26T07:52:55.511328",
        "meta_mean_motion": 14.14089846,
        "meta_eccentricity": 0.00324277,
        "meta_inclination": 98.6918,
        "meta_ra_of_asc_node": 353.7887,
        "meta_arg_of_pericenter": 261.5394,
        "meta_mean_anomaly": 98.2104,
        "meta_ephemeris_type": 0,
        "meta_classification_type": "U",
        "meta_norad_cat_id": 31646,
        "meta_element_set_no": 999,
        "meta_rev_at_epoch": 62959,
        "meta_bstar": 0.00056384742,
        "meta_mean_motion_dot": 1.035e-05,
        "meta_mean_motion_ddot": 0,
        "tle_line1": "1 31646U 99025CBC 25330.32842027  .00001035  00000+0  56385-3 0  9994",
        "tle_line2": "2 31646  98.6918 353.7887 0032427 261.5394  98.2104 14.14089846629592"
      },
      "geometry": {
        "type": "Point",
        "coordinates": [
          167.4023082085012,
          -57.318871081023914
        ]
      }
    }
  ]
}